[{"OBJECT_NAME":"HAWK-2A","OBJECT_ID":"2021-006CW","EPOCH":"2026-03-09T16:18:25.817472","MEAN_MOTION":15.33304498,"ECCENTRICITY":0.00064498,"INCLINATION":97.2459,"RA_OF_ASC_NODE":115.6184,"ARG_OF_PERICENTER":187.1463,"MEAN_ANOMALY":172.9689,"EPHEMERIS_TYPE":0,"CLASSIFICATION_TYPE":"U","NORAD_CAT_ID":47505,"ELEMENT_SET_NO":999,"REV_AT_EPOCH":28424,"BSTAR":0.0002543136,"MEAN_MOTION_DOT":8.113e-5,"MEAN_MOTION_DDOT":0},{"OBJECT_NAME":"STARLINK-31488","OBJECT_ID":"2024-036M","EPOCH":"2026-03-09T08:16:21.326592","MEAN_MOTION":15.30195249,"ECCENTRICITY":6.737e-5,"INCLINATION":53.1598,"RA_OF_ASC_NODE":79.5005,"ARG_OF_PERICENTER":99.9246,"MEAN_ANOMALY":260.1831,"EPHEMERIS_TYPE":0,"CLASSIFICATION_TYPE":"U","NORAD_CAT_ID":59009,"ELEMENT_SET_NO":999,"REV_AT_EPOCH":11527,"BSTAR":-0.00016641373,"MEAN_MOTION_DOT":-5.283e-5,"MEAN_MOTION_DDOT":0}]
